STARLINK-1992           
1 47632U 21012N   24259.34623037  .00006445  00000+0  45124-3 0  9995
2 47632  53.0528 242.3114 0001732  93.9028 266.2159 15.06396875199356
STARLINK-2009           
1 47633U 21012P   24259.49782189  .00036496  00000+0  24540-2 0  9993
2 47633  53.0553 336.6659 0001496  96.2770 263.8390 15.06435454198056
STARLINK-2010           
1 47634U 21012Q   24259.53931749  .00014110  00000+0  96420-3 0  9993
2 47634  53.0544 336.4505 0001448 106.3325 253.7823 15.06402177198056
STARLINK-2012           
1 47635U 21012R   24259.23293964  .00014203  00000+0  97098-3 0  9996
2 47635  53.0529 242.8217 0001436  84.0883 276.0270 15.06380058199337
STARLINK-2013           
1 47636U 21012S   24259.46007773 -.00000891  00000+0 -40941-4 0  9999
2 47636  53.0559 316.8074 0001479 100.6860 259.4296 15.06378668198326
STARLINK-2014           
1 47637U 21012T   24259.16519909  .00001737  00000+0  13557-3 0  9996
2 47637  53.0528 318.1268 0001457  96.4109 263.7046 15.06381899198283
STARLINK-2015           
1 47638U 21012U   24259.22925435  .00004448  00000+0  31739-3 0  9993
2 47638  53.0541 242.8345 0001331  99.6192 260.4948 15.06387566199346
STARLINK-2016           
1 47639U 21012V   24259.87290690  .00024875  00000+0  16823-2 0  9995
2 47639  53.0560 314.9515 0001698  92.7318 267.3865 15.06413827198385
STARLINK-2018           
1 47640U 21012W   24259.53563744  .00011691  00000+0  80270-3 0  9993
2 47640  53.0545 336.4639 0001850  98.3420 261.7779 15.06388764198059
STARLINK-2019           
1 47641U 21012X   24259.67893917  .00020164  00000+0  13688-2 0  9990
2 47641  53.0541 240.8211 0001296  87.0855 273.0282 15.06396831199400
STARLINK-2020           
1 47642U 21012Y   24258.61275700 -.00001487  00000+0 -80983-4 0  9991
2 47642  53.0553 335.6078 0001488  92.7078 267.4081 15.06391869198499
STARLINK-2022           
1 47643U 21012Z   24259.15783302  .00009759  00000+0  67362-3 0  9997
2 47643  53.0556 318.1631 0001522  85.4575 274.6588 15.06373743198273
STARLINK-2026           
1 47644U 21012AA  24259.91667824  .00525577  00000+0  24163-2 0  9994
2 47644  53.0435 281.7970 0012942   6.6234 352.9140 15.81592312198852
STARLINK-2027           
1 47645U 21012AB  24259.45731558 -.00007368  00000+0 -47665-3 0  9998
2 47645  53.0537 307.0592 0001468  98.5907 261.5249 15.06367946198457
STARLINK-2028           
1 47646U 21012AC  24259.77570137  .00002971  00000+0  21822-3 0  9998
2 47646  53.0524 270.6301 0001352 106.3019 253.8119 15.06402331198998
STARLINK-2030           
1 47647U 21012AD  24258.91639783  .00008177  00000+0  56777-3 0  9998
2 47647  53.0554 339.2419 0001311  86.7033 273.4106 15.06364645197961
STARLINK-2031           
1 47648U 21012AE  24259.43796676  .00010706  00000+0  73673-3 0  9997
2 47648  53.0549 316.9058 0001627  99.6786 260.4386 15.06388792198321
STARLINK-2032           
1 47649U 21012AF  24259.44165123  .00006576  00000+0  46019-3 0  9990
2 47649  53.0553 316.8858 0001512 100.6911 259.4249 15.06380887198323
STARLINK-2033           
1 47650U 21012AG  24259.42690825  .00012544  00000+0  85950-3 0  9991
2 47650  53.0563 316.9554 0000991  64.7375 295.3717 15.06401876198314
STARLINK-2035           
1 47651U 21012AH  24258.93482974  .00031199  00000+0  21045-2 0  9992
2 47651  53.0551 339.2147 0001379  92.3779 267.7368 15.06394388198486
STARLINK-2036           
1 47652U 21012AJ  24259.48676299  .00036569  00000+0  24592-2 0  9995
2 47652  53.0550 336.6739 0001400  91.7837 268.3312 15.06430452198048
STARLINK-2037           
1 47653U 21012AK  24259.15046244  .00007064  00000+0  49295-3 0  9997
2 47653  53.0556 318.1956 0001668  86.9191 273.1989 15.06377432198273
STARLINK-2038           
1 47654U 21012AL  24259.49139310  .00027506  00000+0  18570-2 0  9996
2 47654  53.0558 336.6655 0001442  95.6306 264.4847 15.06425300198041
STARLINK-2039           
1 47655U 21012AM  24259.48402974  .00013371  00000+0  91478-3 0  9999
2 47655  53.0554 336.6986 0001519  86.9411 273.1752 15.06403300198048
STARLINK-2040           
1 47656U 21012AN  24259.43427537  .00000681  00000+0  64702-4 0  9998
2 47656  53.0539 316.9197 0002664  87.2091 272.9203 15.06379875198314
STARLINK-2041           
1 47657U 21012AP  24259.50615257  .00005035  00000+0  35684-3 0  9999
2 47657  53.0560 336.6003 0001496  92.5885 267.5275 15.06380371198059
STARLINK-2042           
1 47658U 21012AQ  24258.50356128  .00032432  00000+0  21879-2 0  9999
2 47658  53.0548 341.1015 0001504 103.6604 256.4552 15.06370500197904
STARLINK-2043           
1 47659U 21012AR  24259.19284757  .00016972  00000+0  11556-2 0  9996
2 47659  53.0521 218.0001 0001566  99.7690 260.3476 15.06398572199675
STARLINK-2044           
1 47660U 21012AS  24259.14593557  .00025871  00000+0  17494-2 0  9999
2 47660  53.0536 208.8409 0001588 108.6158 251.5004 15.06398873199803
STARLINK-2051           
1 47661U 21012AT  24259.19837953  .00012543  00000+0  86021-3 0  9991
2 47661  53.0558 317.9806 0001662  96.0776 264.0402 15.06365924198283
STARLINK-2052           
1 47662U 21012AU  24259.44439454  .00007868  00000+0  54676-3 0  9999
2 47662  53.0542 316.8763 0001495  97.3196 262.7962 15.06381854198322
STARLINK-2053           
1 47663U 21012AV  24259.24263887  .00027548  00000+0  18606-2 0  9992
2 47663  53.0513 238.0979 0001421 100.1507 259.9642 15.06409694199409
STARLINK-2054           
1 47664U 21012AW  24259.17994852  .00005438  00000+0  38393-3 0  9998
2 47664  53.0556 318.0629 0001817 110.3976 249.7208 15.06374939198283
STARLINK-2056           
1 47665U 21012AX  24259.16014124  .00002423  00000+0  18163-3 0  9997
2 47665  53.0541 313.1984 0001650 106.4319 253.6852 15.06375800198344
STARLINK-2057           
1 47666U 21012AY  24259.42184910 -.00008771  00000+0 -57097-3 0  9991
2 47666  53.0546 312.3310 0001509  98.8836 261.2324 15.06377528198387
STARLINK-2058           
1 47667U 21012AZ  24259.47665545  .00017937  00000+0  12194-2 0  9995
2 47667  53.0553 336.7333 0002150  87.5095 272.6140 15.06418855198040
STARLINK-2059           
1 47668U 21012BA  24259.45271071  .00014692  00000+0  10034-2 0  9997
2 47668  53.0560 316.8391 0001493  63.3352 296.7790 15.06391936198328
STARLINK-2062           
1 47670U 21012BC  24259.86534756  .00034471  00000+0  23132-2 0  9997
2 47670  53.0564 314.9845 0001615  89.5015 270.6159 15.06537238198383
STARLINK-2064           
1 47671U 21012BD  24259.84709569  .00028210  00000+0  19053-2 0  9993
2 47671  53.0542 315.0686 0001145  70.1244 289.9868 15.06397170198382
STARLINK-2065           
1 47672U 21012BE  24259.82590093 -.00001806  00000+0 -10237-3 0  9992
2 47672  53.0565 305.1632 0001381 102.6767 257.4376 15.06402943198516
STARLINK-2066           
1 47673U 21012BF  24259.86921884  .00020774  00000+0  14089-2 0  9994
2 47673  53.0545 314.9682 0001419  92.7567 267.3584 15.06413655198385
STARLINK-2067           
1 47674U 21012BG  24259.15320364  .00009169  00000+0  63406-3 0  9996
2 47674  53.0530 318.1721 0001762  98.6461 261.4728 15.06376772198270
STARLINK-2078           
1 47675U 21012BH  24259.87659150  .00023194  00000+0  15702-2 0  9993
2 47675  53.0539 314.9380 0001470  93.4817 266.6340 15.06416063198386
STARLINK-2083           
1 47676U 21012BJ  24259.87198326  .00023557  00000+0  15942-2 0  9996
2 47676  53.0534 204.9531 0001448 119.6412 240.4721 15.06420921199927
STARLINK-2090           
1 47677U 21012BK  24258.93388073  .00028266  00000+0  19099-2 0  9992
2 47677  53.0556 339.1618 0001480 102.9539 257.1616 15.06380792198478
STARLINK-2095           
1 47679U 21012BM  24259.62678607 -.00007012  00000+0 -45225-3 0  9995
2 47679  53.0560 336.0550 0001397  98.3002 261.8145 15.06402352198078
STARLINK-2068           
1 47722U 21017A   24259.86878323  .00000140  00000+0  28289-4 0  9997
2 47722  53.0529 100.2113 0001515 102.2007 257.9152 15.06394153195946
STARLINK-2107           
1 47723U 21017B   24259.54484179 -.00000143  00000+0  92922-5 0  9995
2 47723  53.0566  36.4255 0001526  99.6448 260.4713 15.06380845196806
STARLINK-2116           
1 47724U 21017C   24259.64804909  .00002380  00000+0  17871-3 0  9996
2 47724  53.0533  35.9551 0001321  99.8262 260.2876 15.06385011196823
STARLINK-2125           
1 47725U 21017D   24259.88119343  .00002146  00000+0  16296-3 0  9994
2 47725  53.0533 104.9136 0001856  94.6589 265.4612 15.06400182195874
STARLINK-2126           
1 47726U 21017E   24259.58334491  .00159559  00000+0  36677-2 0  9990
2 47726  53.0651  71.1132 0007039 176.2990 308.0730 15.41583019196336
STARLINK-2129           
1 47727U 21017F   24259.55219530  .00000939  00000+0  81946-4 0  9992
2 47727  53.0543  26.3898 0001420  91.3123 268.8029 15.06378213196941
STARLINK-2131           
1 47728U 21017G   24259.84064106  .00002018  00000+0  15436-3 0  9992
2 47728  53.0536 105.0908 0001692 111.1216 248.9954 15.06398885195870
STARLINK-2132           
1 47729U 21017H   24259.60226405  .01173831  77992-3  16960-2 0  9992
2 47729  53.0428  19.3086 0007061 341.0064  19.0703 16.04833871197055
STARLINK-2140           
1 47730U 21017J   24259.53149118  .00001709  00000+0  13360-3 0  9998
2 47730  53.0526 121.4924 0001261  83.0903 277.0229 15.06397965195612
STARLINK-2141           
1 47731U 21017K   24259.86921632  .00029423  00000+0  19860-2 0  9997
2 47731  53.0532 114.9649 0000512  42.6842 317.4187 15.06398890195735
STARLINK-2142           
1 47732U 21017L   24259.77572031 -.00009794  00000+0 -64044-3 0  9999
2 47732  53.0547  30.6275 0001078  87.0475 273.0637 15.06348286196905
STARLINK-2143           
1 47733U 21017M   24259.85724045  .00023482  00000+0  15898-2 0  9993
2 47733  53.0535 125.0214 0001670 107.8985 252.2186 15.06406409195594
STARLINK-2144           
1 47734U 21017N   24259.87658710  .00011047  00000+0  75915-3 0  9992
2 47734  53.0535 114.9317 0001347  86.4243 273.6900 15.06410427195738
